0 EUTELSAT 1-F5 (ECS 5)
1 19331U 88063B   13276.90357824 -.00000034  00000-0  10000-3 0  9801
2 19331 014.5008 028.0435 0014177 054.1983 305.9466 00.98164557 68854
0 EUTELSAT 1-F5 (ECS 5)
1 19331U 88063B   13278.94085755 -.00000082  00000-0  10000-3 0  9812
2 19331 014.5035 028.0208 0014167 054.1446 305.9913 00.98165414 68877
0 EUTELSAT 1-F5 (ECS 5)
1 19331U 88063B   13280.97813219 -.00000137  00000-0  10000-3 0  9824
2 19331 014.5063 027.9993 0014108 054.0531 306.0759 00.98166244 68890
0 EUTELSAT 1-F5 (ECS 5)
1 19331U 88063B   13283.01541276 -.00000184  00000-0  10000-3 0  9836
2 19331 014.5090 027.9767 0014062 054.0259 306.1052 00.98166849 68916
0 EUTELSAT 1-F5 (ECS 5)
1 19331U 88063B   13289.12716568 -.00000177  00000-0  10000-3 0  9856
2 19331 014.5168 027.9095 0013893 054.3528 305.7576 00.98166256 68973
